BIROS                   
1 41604U 16040F   25165.53440709  .00027579  00000+0  31112-3 0  9997
2 41604  97.0852 194.4416 0006819 140.7801 219.3953 15.62455418500279
GAOFEN-3                
1 41727U 16049A   25165.86725348  .00000033  00000+0  23304-4 0  9994
2 41727  98.4026 174.1488 0001510 109.3646 250.7707 14.42156993465693
SKYSAT-C4               
1 41771U 16058B   25165.33796478  .00011631  00000+0  32511-3 0  9992
2 41771  96.9545 199.8671 0003272 127.8334 232.3207 15.36822025488770
SKYSAT-C5               
1 41772U 16058C   25165.58432399  .00009752  00000+0  27823-3 0  9990
2 41772  97.0993 215.9839 0006005  48.5724 311.6036 15.36221419487359
SKYSAT-C2               
1 41773U 16058D   25165.61837197  .00008755  00000+0  27791-3 0  9996
2 41773  97.0526 198.2033 0002164 314.2980  45.8085 15.32883024488588
SKYSAT-C3               
1 41774U 16058E   25165.68656152  .00011542  00000+0  31193-3 0  9993
2 41774  96.9520 208.5019 0002506 113.3471 246.8039 15.37873816489387
ALSAT 1B                
1 41785U 16059C   25165.84567168  .00000378  00000+0  68044-4 0  9993
2 41785  97.7879 185.3328 0008658 335.5780  24.5016 14.71839118466537
PATHFINDER 1            
1 41787U 16059E   25165.78033869  .00000586  00000+0  11248-3 0  9998
2 41787  97.8125 176.9568 0027484 298.9547  60.8903 14.66935422465836
SCATSAT 1               
1 41790U 16059H   25165.55547754  .00001215  00000+0  17093-3 0  9994
2 41790  98.1689 219.7730 0055718 352.7053   7.3340 14.78232159 47251
GOKTURK 1A              
1 41875U 16073A   25165.84795827  .00000401  00000+0  87758-4 0  9994
2 41875  98.1136  60.7857 0001378  86.6047 273.5313 14.62818677455129
RESOURCESAT-2A          
1 41877U 16074A   25165.74393684  .00000231  00000+0  12503-3 0  9997
2 41877  98.7039 237.1461 0002872  95.4406 264.7099 14.21655519442103
CARTOSAT-2D             
1 41948U 17008A   25165.57256493  .00005519  00000+0  26540-3 0  9991
2 41948  97.4608 225.5115 0006187  88.7051 271.4892 15.19195437461766
SENTINEL-2B             
1 42063U 17013A   25165.72497756  .00000097  00000+0  53499-4 0  9992
2 42063  98.5697 240.7837 0001135  94.9749 265.1563 14.30810612432108
ZHUHAI-1 02 (CAS-4B)    
1 42759U 17034B   25165.76937243  .00062551  00000+0  63535-3 0  9995
2 42759  43.0073 290.9386 0021319 324.1353  35.8080 15.64038545443411
