[
  {
    "OBJECT_NAME": "BIROS",
    "OBJECT_ID": "2016-040F",
    "EPOCH": "2025-06-14T12:49:32.772576",
    "MEAN_MOTION": 15.62455418,
    "ECCENTRICITY": 0.0006819,
    "INCLINATION": 97.0852,
    "RA_OF_ASC_NODE": 194.4416,
    "ARG_OF_PERICENTER": 140.7801,
    "MEAN_ANOMALY": 219.3953,
    "EPHEMERIS_TYPE": 0,
    "CLASSIFICATION_TYPE": "U",
    "NORAD_CAT_ID": 41604,
    "ELEMENT_SET_NO": 999,
    "REV_AT_EPOCH": 50027,
    "BSTAR": 0.00031112,
    "MEAN_MOTION_DOT": 0.00027579,
    "MEAN_MOTION_DDOT": 0
  },
  {
    "OBJECT_NAME": "GAOFEN-3",
    "OBJECT_ID": "2016-049A",
    "EPOCH": "2025-06-14T20:48:50.700672",
    "MEAN_MOTION": 14.42156993,
    "ECCENTRICITY": 0.000151,
    "INCLINATION": 98.4026,
    "RA_OF_ASC_NODE": 174.1488,
    "ARG_OF_PERICENTER": 109.3646,
    "MEAN_ANOMALY": 250.7707,
    "EPHEMERIS_TYPE": 0,
    "CLASSIFICATION_TYPE": "U",
    "NORAD_CAT_ID": 41727,
    "ELEMENT_SET_NO": 999,
    "REV_AT_EPOCH": 46569,
    "BSTAR": 2.3304e-05,
    "MEAN_MOTION_DOT": 3.3e-07,
    "MEAN_MOTION_DDOT": 0
  },
  {
    "OBJECT_NAME": "SKYSAT-C4",
    "OBJECT_ID": "2016-058B",
    "EPOCH": "2025-06-14T08:06:40.156992",
    "MEAN_MOTION": 15.36822025,
    "ECCENTRICITY": 0.0003272,
    "INCLINATION": 96.9545,
    "RA_OF_ASC_NODE": 199.8671,
    "ARG_OF_PERICENTER": 127.8334,
    "MEAN_ANOMALY": 232.3207,
    "EPHEMERIS_TYPE": 0,
    "CLASSIFICATION_TYPE": "U",
    "NORAD_CAT_ID": 41771,
    "ELEMENT_SET_NO": 999,
    "REV_AT_EPOCH": 48877,
    "BSTAR": 0.00032511,
    "MEAN_MOTION_DOT": 0.00011631,
    "MEAN_MOTION_DDOT": 0
  },
  {
    "OBJECT_NAME": "SKYSAT-C5",
    "OBJECT_ID": "2016-058C",
    "EPOCH": "2025-06-14T14:01:25.592736",
    "MEAN_MOTION": 15.36221419,
    "ECCENTRICITY": 0.0006005,
    "INCLINATION": 97.0993,
    "RA_OF_ASC_NODE": 215.9839,
    "ARG_OF_PERICENTER": 48.5724,
    "MEAN_ANOMALY": 311.6036,
    "EPHEMERIS_TYPE": 0,
    "CLASSIFICATION_TYPE": "U",
    "NORAD_CAT_ID": 41772,
    "ELEMENT_SET_NO": 999,
    "REV_AT_EPOCH": 48735,
    "BSTAR": 0.00027823,
    "MEAN_MOTION_DOT": 9.752e-05,
    "MEAN_MOTION_DDOT": 0
  },
  {
    "OBJECT_NAME": "SKYSAT-C2",
    "OBJECT_ID": "2016-058D",
    "EPOCH": "2025-06-14T14:50:27.338208",
    "MEAN_MOTION": 15.32883024,
    "ECCENTRICITY": 0.0002164,
    "INCLINATION": 97.0526,
    "RA_OF_ASC_NODE": 198.2033,
    "ARG_OF_PERICENTER": 314.298,
    "MEAN_ANOMALY": 45.8085,
    "EPHEMERIS_TYPE": 0,
    "CLASSIFICATION_TYPE": "U",
    "NORAD_CAT_ID": 41773,
    "ELEMENT_SET_NO": 999,
    "REV_AT_EPOCH": 48858,
    "BSTAR": 0.00027791,
    "MEAN_MOTION_DOT": 8.755e-05,
    "MEAN_MOTION_DDOT": 0
  },
  {
    "OBJECT_NAME": "SKYSAT-C3",
    "OBJECT_ID": "2016-058E",
    "EPOCH": "2025-06-14T16:28:38.915328",
    "MEAN_MOTION": 15.37873816,
    "ECCENTRICITY": 0.0002506,
    "INCLINATION": 96.952,
    "RA_OF_ASC_NODE": 208.5019,
    "ARG_OF_PERICENTER": 113.3471,
    "MEAN_ANOMALY": 246.8039,
    "EPHEMERIS_TYPE": 0,
    "CLASSIFICATION_TYPE": "U",
    "NORAD_CAT_ID": 41774,
    "ELEMENT_SET_NO": 999,
    "REV_AT_EPOCH": 48938,
    "BSTAR": 0.00031193,
    "MEAN_MOTION_DOT": 0.00011542,
    "MEAN_MOTION_DDOT": 0
  },
  {
    "OBJECT_NAME": "ALSAT 1B",
    "OBJECT_ID": "2016-059C",
    "EPOCH": "2025-06-14T20:17:46.033152",
    "MEAN_MOTION": 14.71839118,
    "ECCENTRICITY": 0.0008658,
    "INCLINATION": 97.7879,
    "RA_OF_ASC_NODE": 185.3328,
    "ARG_OF_PERICENTER": 335.578,
    "MEAN_ANOMALY": 24.5016,
    "EPHEMERIS_TYPE": 0,
    "CLASSIFICATION_TYPE": "U",
    "NORAD_CAT_ID": 41785,
    "ELEMENT_SET_NO": 999,
    "REV_AT_EPOCH": 46653,
    "BSTAR": 6.8044e-05,
    "MEAN_MOTION_DOT": 3.78e-06,
    "MEAN_MOTION_DDOT": 0
  },
  {
    "OBJECT_NAME": "PATHFINDER 1",
    "OBJECT_ID": "2016-059E",
    "EPOCH": "2025-06-14T18:43:41.262816",
    "MEAN_MOTION": 14.66935422,
    "ECCENTRICITY": 0.0027484,
    "INCLINATION": 97.8125,
    "RA_OF_ASC_NODE": 176.9568,
    "ARG_OF_PERICENTER": 298.9547,
    "MEAN_ANOMALY": 60.8903,
    "EPHEMERIS_TYPE": 0,
    "CLASSIFICATION_TYPE": "U",
    "NORAD_CAT_ID": 41787,
    "ELEMENT_SET_NO": 999,
    "REV_AT_EPOCH": 46583,
    "BSTAR": 0.00011248,
    "MEAN_MOTION_DOT": 5.86e-06,
    "MEAN_MOTION_DDOT": 0
  },
  {
    "OBJECT_NAME": "SCATSAT 1",
    "OBJECT_ID": "2016-059H",
    "EPOCH": "2025-06-14T13:19:53.259456",
    "MEAN_MOTION": 14.78232159,
    "ECCENTRICITY": 0.0055718,
    "INCLINATION": 98.1689,
    "RA_OF_ASC_NODE": 219.773,
    "ARG_OF_PERICENTER": 352.7053,
    "MEAN_ANOMALY": 7.334,
    "EPHEMERIS_TYPE": 0,
    "CLASSIFICATION_TYPE": "U",
    "NORAD_CAT_ID": 41790,
    "ELEMENT_SET_NO": 999,
    "REV_AT_EPOCH": 4725,
    "BSTAR": 0.00017093,
    "MEAN_MOTION_DOT": 1.215e-05,
    "MEAN_MOTION_DDOT": 0
  },
  {
    "OBJECT_NAME": "GOKTURK 1A",
    "OBJECT_ID": "2016-073A",
    "EPOCH": "2025-06-14T20:21:03.594528",
    "MEAN_MOTION": 14.62818677,
    "ECCENTRICITY": 0.0001378,
    "INCLINATION": 98.1136,
    "RA_OF_ASC_NODE": 60.7857,
    "ARG_OF_PERICENTER": 86.6047,
    "MEAN_ANOMALY": 273.5313,
    "EPHEMERIS_TYPE": 0,
    "CLASSIFICATION_TYPE": "U",
    "NORAD_CAT_ID": 41875,
    "ELEMENT_SET_NO": 999,
    "REV_AT_EPOCH": 45512,
    "BSTAR": 8.7758e-05,
    "MEAN_MOTION_DOT": 4.01e-06,
    "MEAN_MOTION_DDOT": 0
  },
  {
    "OBJECT_NAME": "RESOURCESAT-2A",
    "OBJECT_ID": "2016-074A",
    "EPOCH": "2025-06-14T17:51:16.142976",
    "MEAN_MOTION": 14.21655519,
    "ECCENTRICITY": 0.0002872,
    "INCLINATION": 98.7039,
    "RA_OF_ASC_NODE": 237.1461,
    "ARG_OF_PERICENTER": 95.4406,
    "MEAN_ANOMALY": 264.7099,
    "EPHEMERIS_TYPE": 0,
    "CLASSIFICATION_TYPE": "U",
    "NORAD_CAT_ID": 41877,
    "ELEMENT_SET_NO": 999,
    "REV_AT_EPOCH": 44210,
    "BSTAR": 0.00012503,
    "MEAN_MOTION_DOT": 2.31e-06,
    "MEAN_MOTION_DDOT": 0
  },
  {
    "OBJECT_NAME": "CARTOSAT-2D",
    "OBJECT_ID": "2017-008A",
    "EPOCH": "2025-06-14T13:44:29.609952",
    "MEAN_MOTION": 15.19195437,
    "ECCENTRICITY": 0.0006187,
    "INCLINATION": 97.4608,
    "RA_OF_ASC_NODE": 225.5115,
    "ARG_OF_PERICENTER": 88.7051,
    "MEAN_ANOMALY": 271.4892,
    "EPHEMERIS_TYPE": 0,
    "CLASSIFICATION_TYPE": "U",
    "NORAD_CAT_ID": 41948,
    "ELEMENT_SET_NO": 999,
    "REV_AT_EPOCH": 46176,
    "BSTAR": 0.0002654,
    "MEAN_MOTION_DOT": 5.519e-05,
    "MEAN_MOTION_DDOT": 0
  },
  {
    "OBJECT_NAME": "SENTINEL-2B",
    "OBJECT_ID": "2017-013A",
    "EPOCH": "2025-06-14T17:23:58.061184",
    "MEAN_MOTION": 14.30810612,
    "ECCENTRICITY": 0.0001135,
    "INCLINATION": 98.5697,
    "RA_OF_ASC_NODE": 240.7837,
    "ARG_OF_PERICENTER": 94.9749,
    "MEAN_ANOMALY": 265.1563,
    "EPHEMERIS_TYPE": 0,
    "CLASSIFICATION_TYPE": "U",
    "NORAD_CAT_ID": 42063,
    "ELEMENT_SET_NO": 999,
    "REV_AT_EPOCH": 43210,
    "BSTAR": 5.3499e-05,
    "MEAN_MOTION_DOT": 9.7e-07,
    "MEAN_MOTION_DDOT": 0
  },
  {
    "OBJECT_NAME": "ZHUHAI-1 02 (CAS-4B)",
    "OBJECT_ID": "2017-034B",
    "EPOCH": "2025-06-14T18:27:53.777952",
    "MEAN_MOTION": 15.64038545,
    "ECCENTRICITY": 0.0021319,
    "INCLINATION": 43.0073,
    "RA_OF_ASC_NODE": 290.9386,
    "ARG_OF_PERICENTER": 324.1353,
    "MEAN_ANOMALY": 35.808,
    "EPHEMERIS_TYPE": 0,
    "CLASSIFICATION_TYPE": "U",
    "NORAD_CAT_ID": 42759,
    "ELEMENT_SET_NO": 999,
    "REV_AT_EPOCH": 44341,
    "BSTAR": 0.00063535,
    "MEAN_MOTION_DOT": 0.00062551,
    "MEAN_MOTION_DDOT": 0
  }
]